{"epoch":1784710044,"count":18256,"objects":[{"id":"65876","name":"STARLINK-34438","type":"PAYLOAD","l1":"1 65876U 25223Y   26202.44034908  .00016493  00000-0  49805-3 0  9992","l2":"2 65876  53.1598  31.4857 0001389 102.3153 257.8005 15.34408553 44709"},{"id":"65877","name":"STARLINK-35462","type":"PAYLOAD","l1":"1 65877U 25223Z   26202.54813462 -.00000820  00000-0 -15559-4 0  9993","l2":"2 65877  53.1581  32.1472 0001199  86.0764 274.0374 15.30193178 44708"},{"id":"65878","name":"STARLINK-35453","type":"PAYLOAD","l1":"1 65878U 25223AA  26201.80152720  .00013722  00000-0  41648-3 0  9995","l2":"2 65878  53.1591  33.8950 0001566  97.0462 263.0718 15.34402987 44619"},{"id":"65879","name":"STARLINK-35418","type":"PAYLOAD","l1":"1 65879U 25223AB  26201.94652405  .00017041  00000-0  51420-3 0  9993","l2":"2 65879  53.1593  33.3788 0001151 105.3690 254.7440 15.34408207 44634"},{"id":"65880","name":"STARLINK-35445","type":"PAYLOAD","l1":"1 65880U 25223AC  26201.94231695  .00017774  00000-0  53571-3 0  9991","l2":"2 65880  53.1588  33.3544 0001074  87.7622 272.3504 15.34413485 44633"},{"id":"65881","name":"STARLINK-35464","type":"PAYLOAD","l1":"1 65881U 25223AD  26202.51170782  .00024633  00000-0  73748-3 0  9995","l2":"2 65881  53.1605  30.5075 0000854  66.1665 293.9427 15.34413746 44728"},{"id":"65882","name":"STARLINK-35270","type":"PAYLOAD","l1":"1 65882U 25224A   26202.47296992  .00020926  00000-0  62845-3 0  9991","l2":"2 65882  53.1584 107.3589 0001197  89.1041 271.0099 15.34415276 45343"},{"id":"65883","name":"STARLINK-35367","type":"PAYLOAD","l1":"1 65883U 25224B   26202.46036025  .00018946  00000-0  57067-3 0  9999","l2":"2 65883  53.1601 107.2737 0001395 105.7898 254.3258 15.34386998 45342"},{"id":"65884","name":"STARLINK-35384","type":"PAYLOAD","l1":"1 65884U 25224C   26202.13126276  .00013203  00000-0  45699-3 0  9991","l2":"2 65884  53.1593 111.6151 0001394  80.0914 280.0244 15.30207586 45257"},{"id":"65885","name":"STARLINK-35415","type":"PAYLOAD","l1":"1 65885U 25224D   26202.45403429  .00021542  00000-0  64650-3 0  9998","l2":"2 65885  53.1589 107.2368 0001167 105.2803 254.8329 15.34418312 45291"},{"id":"65886","name":"STARLINK-35413","type":"PAYLOAD","l1":"1 65886U 25224E   26202.05901367  .00015008  00000-0  45429-3 0  9992","l2":"2 65886  53.1591 109.0388 0001399  73.3167 286.7989 15.34408998 45231"},{"id":"65887","name":"STARLINK-35332","type":"PAYLOAD","l1":"1 65887U 25224F   26202.11573161  .00017053  00000-0  51452-3 0  9992","l2":"2 65887  53.1579 108.6787 0001465  87.4152 272.7018 15.34409511 45320"},{"id":"65888","name":"STARLINK-35362","type":"PAYLOAD","l1":"1 65888U 25224G   26202.07333485  .00010904  00000-0  37966-3 0  9993","l2":"2 65888  53.1597 111.9642 0001384  67.2633 292.8514 15.30207188 45245"},{"id":"65889","name":"STARLINK-35193","type":"PAYLOAD","l1":"1 65889U 25224H   26202.47471387  .00015638  00000-0  53866-3 0  9998","l2":"2 65889  53.1601 110.1916 0001001 102.8767 257.2346 15.30219739 45330"},{"id":"65890","name":"STARLINK-34542","type":"PAYLOAD","l1":"1 65890U 25224J   26202.14499717  .00012960  00000-0  44908-3 0  9993","l2":"2 65890  53.1594 111.7002 0001178  89.0775 271.0361 15.30188808 45306"},{"id":"65891","name":"STARLINK-34791","type":"PAYLOAD","l1":"1 65891U 25224K   26202.48104862  .00016216  00000-0  55822-3 0  9990","l2":"2 65891  53.1587 110.2328 0001482  80.2083 279.9085 15.30212986 45357"},{"id":"65892","name":"STARLINK-34853","type":"PAYLOAD","l1":"1 65892U 25224L   26202.14099116  .00014875  00000-0  45067-3 0  9998","l2":"2 65892  53.1579 108.8392 0001359  81.8970 278.2186 15.34388396 45276"},{"id":"65893","name":"STARLINK-34921","type":"PAYLOAD","l1":"1 65893U 25224M   26202.01118534  .00014419  00000-0  49786-3 0  9997","l2":"2 65893  53.1603 112.2769 0001584  87.6054 272.5128 15.30208801 45281"},{"id":"65894","name":"STARLINK-34672","type":"PAYLOAD","l1":"1 65894U 25224N   26202.46099603  .00013243  00000-0  45833-3 0  9995","l2":"2 65894  53.1591 110.1069 0001219  91.3839 268.7301 15.30207905 45358"},{"id":"65895","name":"STARLINK-34898","type":"PAYLOAD","l1":"1 65895U 25224P   26202.47086519  .00012004  00000-0  36578-3 0  9999","l2":"2 65895  53.1587 107.3330 0001495  86.2156 273.9017 15.34405162 45399"},{"id":"65896","name":"STARLINK-34906","type":"PAYLOAD","l1":"1 65896U 25224Q   26201.97949811  .00007155  00000-0  24200-3 0  9997","l2":"2 65896  53.1568 111.3693 0001366  97.5100 262.6057 15.31714449 45293"},{"id":"65897","name":"STARLINK-34934","type":"PAYLOAD","l1":"1 65897U 25224R   26202.06742755  .00014990  00000-0  45372-3 0  9995","l2":"2 65897  53.1591 109.0812 0001462  73.1944 286.9219 15.34411632 45289"},{"id":"65898","name":"STARLINK-34936","type":"PAYLOAD","l1":"1 65898U 25224S   26202.00860471  .00028589  00000-0  85349-3 0  9993","l2":"2 65898  53.1582 109.4250 0001529  87.5512 272.5666 15.34420212 45320"},{"id":"65899","name":"STARLINK-35272","type":"PAYLOAD","l1":"1 65899U 25224T   26202.44771953  .00014646  00000-0  44356-3 0  9990","l2":"2 65899  53.1577 107.1856 0000925  95.8785 264.2323 15.34412933 45380"},{"id":"65900","name":"STARLINK-35264","type":"PAYLOAD","l1":"1 65900U 25224U   26202.11783412  .00013764  00000-0  41756-3 0  9991","l2":"2 65900  53.1589 108.6827 0001621  84.5111 275.6077 15.34413770 45339"},{"id":"65901","name":"STARLINK-35249","type":"PAYLOAD","l1":"1 65901U 25224V   26202.07122192  .00010056  00000-0  35108-3 0  9994","l2":"2 65901  53.1595 111.9404 0001865  56.5620 303.5559 15.30211754 45272"},{"id":"65902","name":"STARLINK-35278","type":"PAYLOAD","l1":"1 65902U 25224W   26202.01645952  .00020766  00000-0  71148-3 0  9996","l2":"2 65902  53.1595 112.3066 0001849  97.2201 262.9010 15.30190775 45281"},{"id":"65903","name":"STARLINK-35210","type":"PAYLOAD","l1":"1 65903U 25224X   26202.48315970  .00013796  00000-0  47692-3 0  9994","l2":"2 65903  53.1590 110.2447 0001665  56.1598 303.9561 15.30209430 45338"},{"id":"65904","name":"STARLINK-35348","type":"PAYLOAD","l1":"1 65904U 25224Y   26202.45192955  .00021924  00000-0  65759-3 0  9994","l2":"2 65904  53.1575 107.2119 0001418  91.1391 268.9775 15.34425133 45342"},{"id":"65905","name":"STARLINK-35380","type":"PAYLOAD","l1":"1 65905U 25224Z   26202.12703771  .00011396  00000-0  39616-3 0  9998","l2":"2 65905  53.1587 111.5753 0001842  83.7988 276.3223 15.30212695 45252"}]}