OBJECT_NAME,OBJECT_ID,EPOCH,MEAN_MOTION,ECCENTRICITY,INCLINATION,RA_OF_ASC_NODE,ARG_OF_PERICENTER,MEAN_ANOMALY,EPHEMERIS_TYPE,CLASSIFICATION_TYPE,NORAD_CAT_ID,ELEMENT_SET_NO,REV_AT_EPOCH,BSTAR,MEAN_MOTION_DOT,MEAN_MOTION_DDOT
STARLINK-34438,2025-223Y,2026-07-21T10:34:06.160512,15.34408553,.00013894,53.1598,31.4857,102.3153,257.8005,0,U,65876,999,4470,.49804804E-3,.16493E-3,0
STARLINK-35462,2025-223Z,2026-07-21T13:09:18.831168,15.30193178,.00011994,53.1581,32.1472,86.0764,274.0374,0,U,65877,999,4470,-.15558989E-4,-.82E-5,0
STARLINK-35453,2025-223AA,2026-07-20T19:14:11.950080,15.34402987,.00015655,53.1591,33.8950,97.0462,263.0718,0,U,65878,999,4461,.41647787E-3,.13722E-3,0
STARLINK-35418,2025-223AB,2026-07-20T22:42:59.677920,15.34408207,.00011511,53.1593,33.3788,105.3690,254.7440,0,U,65879,999,4463,.51419674E-3,.17041E-3,0
STARLINK-35445,2025-223AC,2026-07-20T22:36:56.184480,15.34413485,.00010739,53.1588,33.3544,87.7622,272.3504,0,U,65880,999,4463,.53571497E-3,.17774E-3,0
STARLINK-35464,2025-223AD,2026-07-21T12:16:51.555648,15.34413746,.0000854,53.1605,30.5075,66.1665,293.9427,0,U,65881,999,4472,.73747608E-3,.24633E-3,0
STARLINK-35270,2025-224A,2026-07-21T11:21:04.601088,15.34415276,.00011972,53.1584,107.3589,89.1041,271.0099,0,U,65882,999,4534,.62844826E-3,.20926E-3,0
STARLINK-35367,2025-224B,2026-07-21T11:02:55.125600,15.34386998,.00013953,53.1601,107.2737,105.7898,254.3258,0,U,65883,999,4534,.57067097E-3,.18946E-3,0
STARLINK-35384,2025-224C,2026-07-21T03:09:01.102464,15.30207586,.00013942,53.1593,111.6151,80.0914,280.0244,0,U,65884,999,4525,.45699395E-3,.13203E-3,0
STARLINK-35415,2025-224D,2026-07-21T10:53:48.562656,15.34418312,.00011669,53.1589,107.2368,105.2803,254.8329,0,U,65885,999,4529,.6464998E-3,.21542E-3,0
STARLINK-35413,2025-224E,2026-07-21T01:24:58.781088,15.34408998,.0001399,53.1591,109.0388,73.3167,286.7989,0,U,65886,999,4523,.45429338E-3,.15008E-3,0
STARLINK-35332,2025-224F,2026-07-21T02:46:39.211104,15.34409511,.00014647,53.1579,108.6787,87.4152,272.7018,0,U,65887,999,4532,.51452357E-3,.17053E-3,0
STARLINK-35362,2025-224G,2026-07-21T01:45:36.131040,15.30207188,.00013841,53.1597,111.9642,67.2633,292.8514,0,U,65888,999,4524,.37965802E-3,.10904E-3,0
STARLINK-35193,2025-224H,2026-07-21T11:23:35.278368,15.30219739,.00010009,53.1601,110.1916,102.8767,257.2346,0,U,65889,999,4533,.53865969E-3,.15638E-3,0
STARLINK-34542,2025-224J,2026-07-21T03:28:47.755488,15.30188808,.00011779,53.1594,111.7002,89.0775,271.0361,0,U,65890,999,4530,.44907873E-3,.1296E-3,0
STARLINK-34791,2025-224K,2026-07-21T11:32:42.600768,15.30212986,.0001482,53.1587,110.2328,80.2083,279.9085,0,U,65891,999,4535,.55821881E-3,.16216E-3,0
STARLINK-34853,2025-224L,2026-07-21T03:23:01.636224,15.34388396,.00013587,53.1579,108.8392,81.8970,278.2186,0,U,65892,999,4527,.45067139E-3,.14875E-3,0
STARLINK-34921,2025-224M,2026-07-21T00:16:06.413376,15.30208801,.0001584,53.1603,112.2769,87.6054,272.5128,0,U,65893,999,4528,.49786322E-3,.14419E-3,0
STARLINK-34672,2025-224N,2026-07-21T11:03:50.056992,15.30207905,.00012194,53.1591,110.1069,91.3839,268.7301,0,U,65894,999,4535,.45833387E-3,.13243E-3,0
STARLINK-34898,2025-224P,2026-07-21T11:18:02.752416,15.34405162,.00014952,53.1587,107.3330,86.2156,273.9017,0,U,65895,999,4539,.36578012E-3,.12004E-3,0
STARLINK-34906,2025-224Q,2026-07-20T23:30:28.636704,15.31714449,.00013659,53.1568,111.3693,97.5100,262.6057,0,U,65896,999,4529,.24200222E-3,.7155E-4,0
STARLINK-34934,2025-224R,2026-07-21T01:37:05.740320,15.34411632,.00014618,53.1591,109.0812,73.1944,286.9219,0,U,65897,999,4528,.45371735E-3,.1499E-3,0
STARLINK-34936,2025-224S,2026-07-21T00:12:23.446944,15.34420212,.00015287,53.1582,109.4250,87.5512,272.5666,0,U,65898,999,4532,.85348663E-3,.28589E-3,0
STARLINK-35272,2025-224T,2026-07-21T10:44:42.967392,15.34412933,.0000925,53.1577,107.1856,95.8785,264.2323,0,U,65899,999,4538,.44355661E-3,.14646E-3,0
STARLINK-35264,2025-224U,2026-07-21T02:49:40.867968,15.34413770,.00016213,53.1589,108.6827,84.5111,275.6077,0,U,65900,999,4533,.41756241E-3,.13764E-3,0
STARLINK-35249,2025-224V,2026-07-21T01:42:33.573888,15.30211754,.00018652,53.1595,111.9404,56.5620,303.5559,0,U,65901,999,4527,.35107733E-3,.10056E-3,0
STARLINK-35278,2025-224W,2026-07-21T00:23:42.102528,15.30190775,.00018489,53.1595,112.3066,97.2201,262.9010,0,U,65902,999,4528,.711484E-3,.20766E-3,0
STARLINK-35210,2025-224X,2026-07-21T11:35:44.998080,15.30209430,.00016648,53.1590,110.2447,56.1598,303.9561,0,U,65903,999,4533,.47692326E-3,.13796E-3,0
STARLINK-35348,2025-224Y,2026-07-21T10:50:46.713120,15.34425133,.00014178,53.1575,107.2119,91.1391,268.9775,0,U,65904,999,4534,.65758831E-3,.21924E-3,0
STARLINK-35380,2025-224Z,2026-07-21T03:02:56.058144,15.30212695,.0001842,53.1587,111.5753,83.7988,276.3223,0,U,65905,999,4525,.39615896E-3,.11396E-3,0
